{"type": "FeatureCollection", "features": [ {"type": "Feature", "properties": {"norad_id": 34031, "name": "COSMOS 2251 DEB", "group": "cosmos-2251-debris", "lat": 33.300650272244106, "lon": 132.24299741657435, "alt_km": 706.0721287713086, "timestamp": "2025-12-20T05:41:50.424819+00:00", "meta": {"OBJECT_NAME": "COSMOS 2251 DEB", "OBJECT_ID": "1993-036HS", "EPOCH": "2025-12-19T03:29:25.717056", "MEAN_MOTION": 14.59757227, "ECCENTRICITY": 0.00229414, "INCLINATION": 74.0127, "RA_OF_ASC_NODE": 123.4727, "ARG_OF_PERICENTER": 243.4611, "MEAN_ANOMALY": 175.3292, "EPHEMERIS_TYPE": 0, "CLASSIFICATION_TYPE": "U", "NORAD_CAT_ID": 34031, "ELEMENT_SET_NO": 999, "REV_AT_EPOCH": 88659, "BSTAR": 0.00097665147, "MEAN_MOTION_DOT": 4.652e-05, "MEAN_MOTION_DDOT": 0}, "tle": {"line1": "1 34031U 93036HS  25353.14543654  .00004652  00000+0  97665-3 0  9994", "line2": "2 34031  74.0127 123.4727 0022941 243.4611 175.3292 14.59757227886593"}}, "geometry": {"type": "Point", "coordinates": [132.24299741657435, 33.300650272244106]}}, {"type": "Feature", "properties": {"norad_id": 34035, "name": "COSMOS 2251 DEB", "group": "cosmos-2251-debris", "lat": -10.509694432916257, "lon": -27.999174038243197, "alt_km": 691.8715668930645, "timestamp": "2025-12-20T05:41:50.424829+00:00", "meta": {"OBJECT_NAME": "COSMOS 2251 DEB", "OBJECT_ID": "1993-036HW", "EPOCH": "2025-12-19T10:28:49.874304", "MEAN_MOTION": 14.52021864, "ECCENTRICITY": 0.0045112, "INCLINATION": 74.0653, "RA_OF_ASC_NODE": 336.5442, "ARG_OF_PERICENTER": 336.6833, "MEAN_ANOMALY": 148.5858, "EPHEMERIS_TYPE": 0, "CLASSIFICATION_TYPE": "U", "NORAD_CAT_ID": 34035, "ELEMENT_SET_NO": 999, "REV_AT_EPOCH": 88063, "BSTAR": 0.0011972, "MEAN_MOTION_DOT": 4.878e-05, "MEAN_MOTION_DDOT": 0}, "tle": {"line1": "1 34035U 93036HW  25353.43668836  .00004878  00000+0  11972-2 0  9996", "line2": "2 34035  74.0653 336.5442 0045112 336.6833 148.5858 14.52021864880631"}}, "geometry": {"type": "Point", "coordinates": [-27.999174038243197, -10.509694432916257]}}, {"type": "Feature", "properties": {"norad_id": 34036, "name": "COSMOS 2251 DEB", "group": "cosmos-2251-debris", "lat": -23.037365510901196, "lon": 127.12752802982426, "alt_km": 593.4224520571788, "timestamp": "2025-12-20T05:41:50.424840+00:00", "meta": {"OBJECT_NAME": "COSMOS 2251 DEB", "OBJECT_ID": "1993-036HX", "EPOCH": "2025-12-19T10:32:19.396032", "MEAN_MOTION": 14.95474243, "ECCENTRICITY": 0.0010946, "INCLINATION": 74.0197, "RA_OF_ASC_NODE": 135.739, "ARG_OF_PERICENTER": 166.4957, "MEAN_ANOMALY": 193.6523, "EPHEMERIS_TYPE": 0, "CLASSIFICATION_TYPE": "U", "NORAD_CAT_ID": 34036, "ELEMENT_SET_NO": 999, "REV_AT_EPOCH": 88670, "BSTAR": 0.0024847, "MEAN_MOTION_DOT": 0.0002761, "MEAN_MOTION_DDOT": 0}, "tle": {"line1": "1 34036U 93036HX  25353.43911338  .00027610  00000+0  24847-2 0  9999", "line2": "2 34036  74.0197 135.7390 0010946 166.4957 193.6523 14.95474243886703"}}, "geometry": {"type": "Point", "coordinates": [127.12752802982426, -23.037365510901196]}}, {"type": "Feature", "properties": {"norad_id": 34037, "name": "COSMOS 2251 DEB", "group": "cosmos-2251-debris", "lat": -21.36457578475905, "lon": -136.85667972523595, "alt_km": 798.1500039723896, "timestamp": "2025-12-20T05:41:50.424850+00:00", "meta": {"OBJECT_NAME": "COSMOS 2251 DEB", "OBJECT_ID": "1993-036HY", "EPOCH": "2025-12-19T13:42:06.001920", "MEAN_MOTION": 14.34681394, "ECCENTRICITY": 0.0051825, "INCLINATION": 74.0512, "RA_OF_ASC_NODE": 37.9399, "ARG_OF_PERICENTER": 85.8156, "MEAN_ANOMALY": 274.8917, "EPHEMERIS_TYPE": 0, "CLASSIFICATION_TYPE": "U", "NORAD_CAT_ID": 34037, "ELEMENT_SET_NO": 999, "REV_AT_EPOCH": 87815, "BSTAR": 0.00030653, "MEAN_MOTION_DOT": 8.55e-06, "MEAN_MOTION_DDOT": 0}, "tle": {"line1": "1 34037U 93036HY  25353.57090280  .00000855  00000+0  30653-3 0  9994", "line2": "2 34037  74.0512  37.9399 0051825  85.8156 274.8917 14.34681394878152"}}, "geometry": {"type": "Point", "coordinates": [-136.85667972523595, -21.36457578475905]}}, {"type": "Feature", "properties": {"norad_id": 34040, "name": "COSMOS 2251 DEB", "group": "cosmos-2251-debris", "lat": 66.26806543588793, "lon": -167.41003082921068, "alt_km": 1044.4702300264426, "timestamp": "2025-12-20T05:41:50.424860+00:00", "meta": {"OBJECT_NAME": "COSMOS 2251 DEB", "OBJECT_ID": "1993-036JB", "EPOCH": "2025-12-19T13:24:10.918080", "MEAN_MOTION": 13.68384263, "ECCENTRICITY": 0.0343262, "INCLINATION": 73.9557, "RA_OF_ASC_NODE": 54.596, "ARG_OF_PERICENTER": 6.5752, "MEAN_ANOMALY": 353.9696, "EPHEMERIS_TYPE": 0, "CLASSIFICATION_TYPE": "U", "NORAD_CAT_ID": 34040, "ELEMENT_SET_NO": 999, "REV_AT_EPOCH": 83693, "BSTAR": 0.00048435, "MEAN_MOTION_DOT": 6.02e-06, "MEAN_MOTION_DDOT": 0}, "tle": {"line1": "1 34040U 93036JB  25353.55845970  .00000602  00000+0  48435-3 0  9997", "line2": "2 34040  73.9557  54.5960 0343262   6.5752 353.9696 13.68384263836937"}}, "geometry": {"type": "Point", "coordinates": [-167.41003082921068, 66.26806543588793]}}, {"type": "Feature", "properties": {"norad_id": 34045, "name": "COSMOS 2251 DEB", "group": "cosmos-2251-debris", "lat": -47.3258578531815, "lon": 135.19719393515658, "alt_km": 800.4653187734921, "timestamp": "2025-12-20T05:41:50.424870+00:00", "meta": {"OBJECT_NAME": "COSMOS 2251 DEB", "OBJECT_ID": "1993-036JG", "EPOCH": "2025-12-19T20:24:43.675200", "MEAN_MOTION": 14.34072515, "ECCENTRICITY": 0.00259577, "INCLINATION": 74.0395, "RA_OF_ASC_NODE": 297.8205, "ARG_OF_PERICENTER": 19.3257, "MEAN_ANOMALY": 14.0853, "EPHEMERIS_TYPE": 0, "CLASSIFICATION_TYPE": "U", "NORAD_CAT_ID": 34045, "ELEMENT_SET_NO": 999, "REV_AT_EPOCH": 88135, "BSTAR": 6.6292511e-05, "MEAN_MOTION_DOT": 1.6e-06, "MEAN_MOTION_DDOT": 0}, "tle": {"line1": "1 34045U 93036JG  25353.85050550  .00000160  00000+0  66293-4 0  9999", "line2": "2 34045  74.0395 297.8205 0025957  19.3257  14.0853 14.34072515881352"}}, "geometry": {"type": "Point", "coordinates": [135.19719393515658, -47.3258578531815]}}, {"type": "Feature", "properties": {"norad_id": 34046, "name": "COSMOS 2251 DEB", "group": "cosmos-2251-debris", "lat": -14.348570514002985, "lon": -179.32808300051093, "alt_km": 765.1441364220182, "timestamp": "2025-12-20T05:41:50.424880+00:00", "meta": {"OBJECT_NAME": "COSMOS 2251 DEB", "OBJECT_ID": "1993-036JH", "EPOCH": "2025-12-19T11:06:49.799232", "MEAN_MOTION": 14.46523358, "ECCENTRICITY": 0.0074443, "INCLINATION": 74.039, "RA_OF_ASC_NODE": 357.9188, "ARG_OF_PERICENTER": 79.329, "MEAN_ANOMALY": 44.1428, "EPHEMERIS_TYPE": 0, "CLASSIFICATION_TYPE": "U", "NORAD_CAT_ID": 34046, "ELEMENT_SET_NO": 999, "REV_AT_EPOCH": 87923, "BSTAR": 0.0008267, "MEAN_MOTION_DOT": 3.055e-05, "MEAN_MOTION_DDOT": 0}, "tle": {"line1": "1 34046U 93036JH  25353.46307638  .00003055  00000+0  82670-3 0  9991", "line2": "2 34046  74.0390 357.9188 0074443  79.3290  44.1428 14.46523358879238"}}, "geometry": {"type": "Point", "coordinates": [-179.32808300051093, -14.348570514002985]}}, {"type": "Feature", "properties": {"norad_id": 34050, "name": "COSMOS 2251 DEB", "group": "cosmos-2251-debris", "lat": 23.195288131390154, "lon": 170.17029201928676, "alt_km": 919.5123174906958, "timestamp": "2025-12-20T05:41:50.424890+00:00", "meta": {"OBJECT_NAME": "COSMOS 2251 DEB", "OBJECT_ID": "1993-036JM", "EPOCH": "2025-12-19T10:35:38.770080", "MEAN_MOTION": 13.96194973, "ECCENTRICITY": 0.0214635, "INCLINATION": 74.0882, "RA_OF_ASC_NODE": 358.5562, "ARG_OF_PERICENTER": 61.1529, "MEAN_ANOMALY": 52.8986, "EPHEMERIS_TYPE": 0, "CLASSIFICATION_TYPE": "U", "NORAD_CAT_ID": 34050, "ELEMENT_SET_NO": 999, "REV_AT_EPOCH": 85525, "BSTAR": 0.00051879, "MEAN_MOTION_DOT": 8.44e-06, "MEAN_MOTION_DDOT": 0}, "tle": {"line1": "1 34050U 93036JM  25353.44142095  .00000844  00000+0  51879-3 0  9998", "line2": "2 34050  74.0882 358.5562 0214635  61.1529  52.8986 13.96194973855257"}}, "geometry": {"type": "Point", "coordinates": [170.17029201928676, 23.195288131390154]}}, {"type": "Feature", "properties": {"norad_id": 34053, "name": "COSMOS 2251 DEB", "group": "cosmos-2251-debris", "lat": -61.898369619379466, "lon": -162.78809750914073, "alt_km": 1036.3730672782658, "timestamp": "2025-12-20T05:41:50.424901+00:00", "meta": {"OBJECT_NAME": "COSMOS 2251 DEB", "OBJECT_ID": "1993-036JQ", "EPOCH": "2025-12-19T01:32:20.446656", "MEAN_MOTION": 13.49171011, "ECCENTRICITY": 0.04225955, "INCLINATION": 73.8435, "RA_OF_ASC_NODE": 231.9802, "ARG_OF_PERICENTER": 19.4918, "MEAN_ANOMALY": 342.1806, "EPHEMERIS_TYPE": 0, "CLASSIFICATION_TYPE": "U", "NORAD_CAT_ID": 34053, "ELEMENT_SET_NO": 999, "REV_AT_EPOCH": 82769, "BSTAR": 0.00056919139, "MEAN_MOTION_DOT": 6e-06, "MEAN_MOTION_DDOT": 0}, "tle": {"line1": "1 34053U 93036JQ  25353.06412554  .00000600  00000+0  56919-3 0  9999", "line2": "2 34053  73.8435 231.9802 0422595  19.4918 342.1806 13.49171011827695"}}, "geometry": {"type": "Point", "coordinates": [-162.78809750914073, -61.898369619379466]}}, {"type": "Feature", "properties": {"norad_id": 34056, "name": "COSMOS 2251 DEB", "group": "cosmos-2251-debris", "lat": -54.3161754618326, "lon": -93.575906894508, "alt_km": 885.159081657267, "timestamp": "2025-12-20T05:41:50.424911+00:00", "meta": {"OBJECT_NAME": "COSMOS 2251 DEB", "OBJECT_ID": "1993-036JT", "EPOCH": "2025-12-19T15:46:14.137248", "MEAN_MOTION": 14.2057922, "ECCENTRICITY": 0.0123789, "INCLINATION": 74.0586, "RA_OF_ASC_NODE": 64.0082, "ARG_OF_PERICENTER": 110.0271, "MEAN_ANOMALY": 40.0119, "EPHEMERIS_TYPE": 0, "CLASSIFICATION_TYPE": "U", "NORAD_CAT_ID": 34056, "ELEMENT_SET_NO": 999, "REV_AT_EPOCH": 86509, "BSTAR": 0.00048677, "MEAN_MOTION_DOT": 1.107e-05, "MEAN_MOTION_DDOT": 0}, "tle": {"line1": "1 34056U 93036JT  25353.65710807  .00001107  00000+0  48677-3 0  9994", "line2": "2 34056  74.0586  64.0082 0123789 110.0271  40.0119 14.20579220865097"}}, "geometry": {"type": "Point", "coordinates": [-93.575906894508, -54.3161754618326]}}]}